BEIDOU-2 IGSO-4         
1 37763U 11038A   26151.51943152  .00000047  00000+0  00000+0 0  9993
2 37763  54.5976 165.8209 0158670 231.3955 131.4280  1.00288616 54482
ASTRA 1N                
1 37775U 11041A   26155.64016186  .00000132  00000+0  00000+0 0  9991
2 37775   0.0744  29.6401 0006399  59.2667  53.8496  1.00273598 44402
BSAT-3C (JCSAT-110R)    
1 37776U 11041B   26155.71198486 -.00000338  00000+0  00000+0 0  9993
2 37776   0.0259 309.4229 0000589 193.3274 116.6773  1.00269799 50344
PAKSAT-1R               
1 37779U 11042A   26155.74985803  .00000166  00000+0  00000+0 0  9995
2 37779   0.6562  84.7219 0003463 342.6358 133.7544  1.00273467 54356
SES-2                   
1 37809U 11049A   26155.61912058 -.00000184  00000+0  00000+0 0  9995
2 37809   0.0357 111.6628 0003006 322.6235 314.6636  1.00270456 53834
ARABSAT-5C              
1 37810U 11049B   26155.64033521  .00000135  00000+0  00000+0 0  9994
2 37810   0.0557  20.7912 0003198  70.3249  52.4752  1.00272282 53912
EUTELSAT 7 WEST A       
1 37816U 11051A   26155.63496184 -.00000048  00000+0  00000+0 0  9994
2 37816   0.0613 345.0198 0004344 101.2631  28.0703  1.00271091 53757
QUETZSAT 1              
1 37826U 11054A   26155.54986286 -.00000230  00000+0  00000+0 0  9998
2 37826   0.0383  61.2609 0002921  15.9019 296.7861  1.00270767 49748
INTELSAT 18 (IS-18)     
1 37834U 11056A   26155.75494183  .00000065  00000+0  00000+0 0  9997
2 37834   0.0123 293.9334 0002262 151.7198 259.3248  1.00271654 53681
EUTELSAT 16A            
1 37836U 11057A   26155.63938187  .00000116  00000+0  00000+0 0  9991
2 37836   0.0432 341.9099 0005837  94.0576  63.2948  1.00269276  7212
VIASAT-1                
1 37843U 11059A   26155.61527406 -.00000011  00000+0  00000+0 0  9992
2 37843   0.0166 317.6845 0002516 112.6195 289.1601  1.00268808 47194
ASIASAT 7               
1 37933U 11069A   26155.84003009 -.00000322  00000+0  00000+0 0  9991
2 37933   0.0188 312.7060 0001702 110.8098 237.7069  1.00271709 44739
BEIDOU-2 IGSO-5         
1 37948U 11073A   26155.64834352 -.00000161  00000+0  00000+0 0  9994
2 37948  47.7023 271.7026 0113306 221.7104  84.8230  1.00276059 53005
LUCH-5A                 
1 37951U 11074B   26155.59350058 -.00000040  00000+0  00000+0 0  9995
2 37951   8.7219  73.9927 0002508   8.5987 191.1306  1.00269919 52929
NIGCOMSAT 1R            
1 38014U 11077A   26155.75438903  .00000157  00000+0  00000+0 0  9991
2 38014   0.0255 216.4074 0002766 140.0085 210.8531  1.00270552 52833
WGS F4 (USA 233)        
1 38070U 12003A   26155.71989234  .00000000  00000+0  00000+0 0  9994
2 38070   0.0170 336.9255 0000178 334.6647 289.1581  1.00270857 44024
SES-4                   
1 38087U 12007A   26155.41810284 -.00000156  00000+0  00000+0 0  9994
2 38087   0.0283  31.0711 0002436  50.9462 299.3641  1.00271340 52093
BEIDOU-2 G5             
1 38091U 12008A   26155.88855838  .00000069  00000+0  00000+0 0  9997
2 38091   3.5433  69.7724 0009618 276.3415 285.8062  1.00269437 52244
MUOS-1                  
1 38093U 12009A   26155.60974448 -.00000117  00000+0  00000+0 0  9994
2 38093   5.4514  47.1657 0058926   0.8210 324.6224  1.00270911 52310
INTELSAT 22 (IS-22)     
1 38098U 12011A   26155.36538861 -.00000047  00000+0  00000+0 0  9992
2 38098   0.0096  35.5561 0002040  37.8633  23.0227  1.00271937  7065
APSTAR-7                
1 38107U 12013A   26155.79410734 -.00000089  00000+0  00000+0 0  9996
2 38107   0.0199  48.1789 0003016  34.4899 172.9458  1.00271551 51682
YAHSAT 1B               
1 38245U 12016A   26155.75772735  .00000138  00000+0  00000+0 0  9994
2 38245   0.0900  91.0154 0002639   1.1390 121.4331  1.00273742 45489
AEHF-2 (USA 235)        
1 38254U 12019A   26155.41922950 -.00000125  00000+0  00000+0 0  9993
2 38254   6.6222  57.5824 0002307   5.5738 324.1315  1.00270681  6856
JCSAT-13                
1 38331U 12023A   26155.66096397 -.00000344  00000+0  00000+0 0  9991
2 38331   0.0330  71.5137 0003001  20.5660 162.9708  1.00270116 51415
VINASAT-2               
1 38332U 12023B   26155.59122676 -.00000317  00000+0  00000+0 0  9994
2 38332   0.0137 352.8698 0002631  95.7014 149.1566  1.00270414 46530
NIMIQ 6                 
1 38342U 12026A   26155.47570477 -.00000162  00000+0  00000+0 0  9999
2 38342   0.0114 329.4309 0002958 102.7570 260.8861  1.00272807 50287
ZHONGXING-2A            
1 38352U 12028A   26155.81725714 -.00000281  00000+0  00000+0 0  9998
2 38352   1.4224  84.0429 0003676  31.3485 170.3177  1.00272532 51171
INTELSAT 19 (IS-19)     
1 38356U 12030A   26155.69786648 -.00000044  00000+0  00000+0 0  9991
2 38356   0.0185 340.3873 0003210  99.9610 230.0316  1.00272140 50321
ECHOSTAR 17             
1 38551U 12035A   26155.61246583  .00000000  00000+0  00000+0 0  9995
2 38551   0.0182 346.4449 0001986  87.1972 292.8078  1.00270627 50935
METEOSAT-10 (MSG-3)     
1 38552U 12035B   26155.06604178  .00000005  00000+0  00000+0 0  9998
2 38552   4.6405  61.0782 0001855 337.7427 237.6281  1.00275536 50722
SES-5                   
1 38652U 12036A   26155.63738852  .00000046  00000+0  00000+0 0  9995
2 38652   0.0495 310.1841 0002151 119.8986  57.4388  1.00271288 44331
INTELSAT 20 (IS-20)     
1 38740U 12043A   26155.77546961 -.00000012  00000+0  00000+0 0  9998
2 38740   0.0100  83.6685 0001640  93.1307  64.0831  1.00271680 50625
