OBJECT_NAME,OBJECT_ID,EPOCH,MEAN_MOTION,ECCENTRICITY,INCLINATION,RA_OF_ASC_NODE,ARG_OF_PERICENTER,MEAN_ANOMALY,EPHEMERIS_TYPE,CLASSIFICATION_TYPE,NORAD_CAT_ID,ELEMENT_SET_NO,REV_AT_EPOCH,BSTAR,MEAN_MOTION_DOT,MEAN_MOTION_DDOT
BEIDOU-2 IGSO-4,2011-038A,2026-05-31T12:27:58.883328,1.00288616,.015867,54.5976,165.8209,231.3955,131.4280,0,U,37763,999,5448,0,.47E-6,0
ASTRA 1N,2011-041A,2026-06-04T15:21:49.984704,1.00273598,.0006399,0.0744,29.6401,59.2667,53.8496,0,U,37775,999,4440,0,.132E-5,0
BSAT-3C (JCSAT-110R),2011-041B,2026-06-04T17:05:15.491904,1.00269799,.0000589,0.0259,309.4229,193.3274,116.6773,0,U,37776,999,5034,0,-.338E-5,0
PAKSAT-1R,2011-042A,2026-06-04T17:59:47.733792,1.00273467,.0003463,0.6562,84.7219,342.6358,133.7544,0,U,37779,999,5435,0,.166E-5,0
SES-2,2011-049A,2026-06-04T14:51:32.018112,1.00270456,.0003006,0.0357,111.6628,322.6235,314.6636,0,U,37809,999,5383,0,-.184E-5,0
ARABSAT-5C,2011-049B,2026-06-04T15:22:04.962144,1.00272282,.0003198,0.0557,20.7912,70.3249,52.4752,0,U,37810,999,5391,0,.135E-5,0
EUTELSAT 7 WEST A,2011-051A,2026-06-04T15:14:20.702976,1.00271091,.0004344,0.0613,345.0198,101.2631,28.0703,0,U,37816,999,5375,0,-.48E-6,0
QUETZSAT 1,2011-054A,2026-06-04T13:11:48.151104,1.00270767,.0002921,0.0383,61.2609,15.9019,296.7861,0,U,37826,999,4974,0,-.23E-5,0
INTELSAT 18 (IS-18),2011-056A,2026-06-04T18:07:06.974112,1.00271654,.0002262,0.0123,293.9334,151.7198,259.3248,0,U,37834,999,5368,0,.65E-6,0
EUTELSAT 16A,2011-057A,2026-06-04T15:20:42.593568,1.00269276,.0005837,0.0432,341.9099,94.0576,63.2948,0,U,37836,999,721,0,.116E-5,0
VIASAT-1,2011-059A,2026-06-04T14:45:59.678784,1.00268808,.0002516,0.0166,317.6845,112.6195,289.1601,0,U,37843,999,4719,0,-.11E-6,0
ASIASAT 7,2011-069A,2026-06-04T20:09:38.599776,1.00271709,.0001702,0.0188,312.7060,110.8098,237.7069,0,U,37933,999,4473,0,-.322E-5,0
BEIDOU-2 IGSO-5,2011-073A,2026-06-04T15:33:36.880128,1.00276059,.0113306,47.7023,271.7026,221.7104,84.8230,0,U,37948,999,5300,0,-.161E-5,0
LUCH-5A,2011-074B,2026-06-04T14:14:38.450112,1.00269919,.0002508,8.7219,73.9927,8.5987,191.1306,0,U,37951,999,5292,0,-.4E-6,0
NIGCOMSAT 1R,2011-077A,2026-06-04T18:06:19.212192,1.00270552,.0002766,0.0255,216.4074,140.0085,210.8531,0,U,38014,999,5283,0,.157E-5,0
WGS F4 (USA 233),2012-003A,2026-06-04T17:16:38.698176,1.00270857,.0000178,0.0170,336.9255,334.6647,289.1581,0,U,38070,999,4402,0,0,0
SES-4,2012-007A,2026-06-04T10:02:04.085376,1.00271340,.0002436,0.0283,31.0711,50.9462,299.3641,0,U,38087,999,5209,0,-.156E-5,0
BEIDOU-2 G5,2012-008A,2026-06-04T21:19:31.444032,1.00269437,.0009618,3.5433,69.7724,276.3415,285.8062,0,U,38091,999,5224,0,.69E-6,0
MUOS-1,2012-009A,2026-06-04T14:38:01.923072,1.00270911,.0058926,5.4514,47.1657,0.8210,324.6224,0,U,38093,999,5231,0,-.117E-5,0
INTELSAT 22 (IS-22),2012-011A,2026-06-04T08:46:09.575904,1.00271937,.000204,0.0096,35.5561,37.8633,23.0227,0,U,38098,999,706,0,-.47E-6,0
APSTAR-7,2012-013A,2026-06-04T19:03:30.874176,1.00271551,.0003016,0.0199,48.1789,34.4899,172.9458,0,U,38107,999,5168,0,-.89E-6,0
YAHSAT 1B,2012-016A,2026-06-04T18:11:07.643040,1.00273742,.0002639,0.0900,91.0154,1.1390,121.4331,0,U,38245,999,4548,0,.138E-5,0
AEHF-2 (USA 235),2012-019A,2026-06-04T10:03:41.428800,1.00270681,.0002307,6.6222,57.5824,5.5738,324.1315,0,U,38254,999,685,0,-.125E-5,0
JCSAT-13,2012-023A,2026-06-04T15:51:47.287008,1.00270116,.0003001,0.0330,71.5137,20.5660,162.9708,0,U,38331,999,5141,0,-.344E-5,0
VINASAT-2,2012-023B,2026-06-04T14:11:21.992064,1.00270414,.0002631,0.0137,352.8698,95.7014,149.1566,0,U,38332,999,4653,0,-.317E-5,0
NIMIQ 6,2012-026A,2026-06-04T11:25:00.892128,1.00272807,.0002958,0.0114,329.4309,102.7570,260.8861,0,U,38342,999,5028,0,-.162E-5,0
ZHONGXING-2A,2012-028A,2026-06-04T19:36:51.016896,1.00272532,.0003676,1.4224,84.0429,31.3485,170.3177,0,U,38352,999,5117,0,-.281E-5,0
INTELSAT 19 (IS-19),2012-030A,2026-06-04T16:44:55.663872,1.00272140,.000321,0.0185,340.3873,99.9610,230.0316,0,U,38356,999,5032,0,-.44E-6,0
ECHOSTAR 17,2012-035A,2026-06-04T14:41:57.047712,1.00270627,.0001986,0.0182,346.4449,87.1972,292.8078,0,U,38551,999,5093,0,0,0
METEOSAT-10 (MSG-3),2012-035B,2026-06-04T01:35:06.009792,1.00275536,.00018557,4.6405,61.0782,337.7427,237.6281,0,U,38552,999,5072,0,.5E-7,0
SES-5,2012-036A,2026-06-04T15:17:50.368128,1.00271288,.0002151,0.0495,310.1841,119.8986,57.4388,0,U,38652,999,4433,0,.46E-6,0
INTELSAT 20 (IS-20),2012-043A,2026-06-04T18:36:40.574304,1.00271680,.000164,0.0100,83.6685,93.1307,64.0831,0,U,38740,999,5062,0,-.12E-6,0
